DELTA 2 R/B             
1 25876U 99041E   20005.90246286 -.00000180  00000-0  87716-5 0  9999
2 25876  51.7656 235.9564 0530645 227.1358 128.3834 14.04380824 45647
HELIOS 1B               
1 25977U 99064A   20006.15096503  .00000010  00000-0  82690-5 0  9996
2 25977  98.2571 155.5735 0002226 121.5792 238.5638 14.82453841 82223
TERRA                   
1 25994U 99068A   20006.49210404  .00000046  00000-0  20205-4 0  9996
2 25994  98.2087  83.0370 0001218 115.4834 244.6488 14.57115196 66585
SL-16 R/B               
1 26070U 00006B   20006.48604581 -.00000263  00000-0 -11028-3 0  9993
2 26070  71.0019 155.7084 0016325   3.7498 356.3744 14.15462041 29532
TITAN 4B R/B            
1 26474U 00047B   20005.84181226  .00000037  00000-0  14177-4 0  9997
2 26474  67.9926 166.0297 0054711  12.4484 347.7994 14.95899491 54850
ENVISAT                 
1 27386U 02009A   20006.47295119  .00000006  00000-0  15527-4 0  9993
2 27386  98.1402  22.0675 0001244  86.4202  36.5327 14.37967752935191
IDEFIX & ARIANE 42P R/B 
1 27422U 02021B   20005.92317836 -.00000020  00000-0  85609-5 0  9994
2 27422  98.3287 333.9708 0012291 359.9754   0.1427 14.29280322921803
AQUA                    
1 27424U 02022A   20005.97750214  .00000070  00000-0  25603-4 0  9994
2 27424  98.2178 308.8972 0002580 111.8359 327.8356 14.57113275940111
CZ-4B R/B               
1 27432U 02024C   20005.89133186 -.00000019  00000-0  14435-4 0  9994
2 27432  99.0824   5.3532 0049504 277.9796 140.3037 14.14087976910532
MIDORI II (ADEOS-II)    
1 27597U 02056A   20006.49461682  .00000028  00000-0  28968-4 0  9998
2 27597  98.5002 318.3613 0002047  95.4410 264.7004 14.27426863888568
H-2A R/B                
1 27601U 02056E   20005.94649199  .00000032  00000-0  26161-4 0  9992
2 27601  98.2496  49.9375 0072919  45.2802  11.8307 14.31926225891296
CZ-4B R/B               
1 28059U 03049C   20005.86447703 -.00000019  00000-0  72868-5 0  9993
2 28059  98.4893 280.5168 0048939 279.0255  80.5404 14.52584632859081
CZ-2C R/B               
1 28222U 04012C   20006.13629924  .00000268  00000-0  20175-4 0  9992
2 28222  97.6549 328.4918 0046025 227.9273 188.6114 15.10254857861385
SL-16 R/B               
1 28353U 04021B   20006.45497494 -.00000102  00000-0 -28422-4 0  9999
2 28353  71.0003 281.1796 0006950 235.2260 124.8208 14.14221474804106
CZ-4B R/B               
1 28415U 04035C   20005.74390526  .00000240  00000-0  20058-4 0  9990
2 28415  97.6370  48.9014 0051440 188.7263 171.3076 15.06783195838985
CZ-2C R/B               
1 28480U 04046B   20005.91712491 -.00000002  00000-0  14752-4 0  9993
2 28480  98.1032  53.3366 0141638 349.6982 183.7680 14.25714195787113
ARIANE 5 R/B            
1 28499U 04049H   20005.83961808  .00000020  00000-0  97146-5 0  9993
2 28499  98.0531 107.1669 0093519  82.2929  28.7321 14.80001530811891
CZ-2D R/B               
1 28738U 05024B   20006.11476865  .00000178  00000-0  14001-4 0  9991
2 28738  97.3975  33.9723 0012823  34.7837 325.4229 15.11937874796741
SUZAKU (ASTRO-EII)      
1 28773U 05025A   20005.69371457  .00000816  00000-0  35576-4 0  9993
2 28773  31.3837   1.3149 0004467 358.9664   1.0973 15.17335429799043
ALOS (DAICHI)           
1 28931U 06002A   20006.39922992  .00000082  00000-0  24702-4 0  9993
2 28931  97.8318   0.2579 0000456  53.0275 307.0984 14.62671262743867
H-2A R/B                
1 28932U 06002B   20006.50987147  .00000496  00000-0  51479-4 0  9990
2 28932  98.3064 347.5224 0089723 134.0439 338.2673 14.92114959756955
AKARI (ASTRO-F)         
1 28939U 06005A   20005.83724793  .00001500  00000-0  43081-4 0  9998
2 28939  98.2122 321.4719 0095394 175.5045 184.7074 15.33453835755818
RESURS-DK 1             
1 29228U 06021A   20006.10986544  .00000041  00000-0  10478-4 0  9996
2 29228  69.9348 243.8160 0005970 319.8503  40.2216 15.02498596748214
GENESIS 1               
1 29252U 06029A   20006.49654578  .00000546  00000-0  36686-4 0  9991
2 29252  64.5225 114.4968 0027153 199.8548 160.1521 15.17984341743442
CZ-4B R/B               
1 29507U 06046C   20006.11554122  .00000116  00000-0  14023-4 0  9990
2 29507  97.7469  28.5020 0049036 357.7991   2.3009 15.00464580720924
CZ-2C R/B               
1 31114U 07010B   20006.45739027 -.00000000  00000-0  18518-4 0  9991
2 31114  98.2803 230.0728 0060221  23.1524 337.2346 14.19304913659904
COSMO-SKYMED 1          
1 31598U 07023A   20006.50745528 -.00000095  00000-0 -54336-5 0  9994
2 31598  97.8838 192.0267 0001361  91.1775 268.9600 14.82155268680691
GENESIS 2               
1 31789U 07028A   20006.15985579  .00000370  00000-0  28536-4 0  9990
2 31789  64.5040 156.8718 0052469 261.5476  97.9697 15.17121625690397
COSMOS 2428             
1 31792U 07029A   20006.38805633 -.00000219  00000-0 -92418-4 0  9996
2 31792  70.9273 255.3016 0010454 311.9432  48.0797 14.12402179645844
SL-16 R/B               
1 31793U 07029B   20005.91502876 -.00000308  00000-0 -13593-3 0  9993
2 31793  70.9733 229.8946 0002447 258.2451 190.6051 14.14422532646565
KORONAS-FOTON           
1 33504U 09003A   20005.76528219  .00000047  00000-0  74174-6 0  9994
2 33504  82.4412  25.6866 0020540 122.9767 237.3444 15.15538300602596
H-2A R/B                
1 38341U 12025E   20006.14305501  .00000089  00000-0  17960-4 0  9990
2 38341  98.4759 150.8324 0056249  37.8716 322.6432 14.83969818413236
CUSAT 2 & FALCON 9 R/B  
1 39271U 13055G   20006.44300421  .00003868  00000-0  95055-4 0  9995
2 39271  80.9686  82.1362 0593502 299.9128  54.4368 14.46562758327153
SL-4 R/B                
1 39679U 14021B   20005.64381207  .00000074  00000-0  22150-4 0  9995
2 39679  51.6149 147.5267 0172996  98.2105 263.8526 15.06268331314659
ALOS-2                  
1 39766U 14029A   20006.51598540 -.00000123  00000-0 -95775-5 0  9998
2 39766  97.9219 105.4621 0001449  91.8951 268.2412 14.79470656303606
SL-27 R/B               
1 40354U 14084B   20005.95355926  .00000817  00000-0  21305-4 0  9995
2 40354  74.7378   6.2818 0039488 277.7254  81.9475 15.39969665282965
YAOGAN 29               
1 41038U 15069A   20006.48285806  .00000027  00000-0  10454-4 0  9993
2 41038  97.9965 354.8672 0002295  70.1959 289.9505 14.80431379222168
ASTRO-H (HITOMI)        
1 41337U 16012A   20006.15168192  .00000224  00000-0  11172-4 0  9993
2 41337  31.0068 325.1330 0012501 257.2288 102.6949 14.98639873212989
SHENZHOU-11 MODULE      
1 41868U 16061G   20005.92200381  .00018969  00000-0  73074-4 0  9991
2 41868  42.7922  78.8749 0009630  40.6317 128.2069 15.86882894180003
HXMT (HUIYAN)           
1 42758U 17034A   20006.28768060 -.00000041  00000-0  11209-4 0  9999
2 42758  43.0180 211.0409 0009805  76.7143  92.1224 15.08729331141220
AEOLUS                  
1 43600U 18066A   20006.49348306  .00028243  00000-0  11084-3 0  9995
2 43600  96.7205  15.3245 0005638  81.9698  69.4218 15.86888778 79526
SAOCOM 1A               
1 43641U 18076A   20006.51559369 -.00000012  00000-0  50911-5 0  9996
2 43641  97.8845 194.9609 0001346  83.3943 276.7425 14.82154141 67460
CREW DRAGON DEMO-1 DEB  
1 44064U 19011B   20005.60599879  .00007529  00000-0  92989-4 0  9994
2 44064  51.6411  60.3246 0004049 145.6468 214.4815 15.61265309 47284
